start=new Date('2022-10-09T00:00:00.000Z').valueOf();
sats=[{"OBJECT_NAME":"STARLINK-3893","RA_OF_ASC_NODE":"337.7935","EPHEMERIS_TYPE":"0","ARG_OF_PERICENTER":"57.7288","COUNTRY_CODE":"US","MEAN_MOTION_DOT":"-0.00001861","DECAY_DATE":null,"OBJECT_TYPE":"PAYLOAD","INCLINATION":"53.2156","GP_ID":"214483653","BSTAR":"-0.00009891100000","TIME_SYSTEM":"UTC","PERIAPSIS":"538.709","SITE":"AFWTR","TLE_LINE2":"2 52579  53.2156 337.7935 0001552  57.7288 302.3855 15.08827675 23009","NORAD_CAT_ID":"52579","EPOCH":"2022-10-08T10:16:48.729792","MEAN_ELEMENT_THEORY":"SGP4","CLASSIFICATION_TYPE":"U","APOAPSIS":"540.857","ELEMENT_SET_NO":"999","PERIOD":"95.438","MEAN_MOTION":"15.08827675","TLE_LINE1":"1 52579U 22051AV  22281.42834178 -.00001861  00000-0 -98911-4 0  9990","FILE":"3596586","REV_AT_EPOCH":"2300","SEMIMAJOR_AXIS":"6917.918","MEAN_MOTION_DDOT":"0.0000000000000","REF_FRAME":"TEME","RCS_SIZE":"LARGE","MEAN_ANOMALY":"302.3855","CENTER_NAME":"EARTH","OBJECT_ID":"2022-051AV","LAUNCH_DATE":"2022-05-13","ECCENTRICITY":"0.00015520"},{"TLE_LINE2":"2 52580  53.2175 336.8846 0002063  42.4696 317.6456 15.08837080 22966","NORAD_CAT_ID":"52580","PERIAPSIS":"538.327","SITE":"AFWTR","GP_ID":"214508445","BSTAR":"0.00012586000000","TIME_SYSTEM":"UTC","INCLINATION":"53.2175","COUNTRY_CODE":"US","ARG_OF_PERICENTER":"42.4696","MEAN_MOTION_DOT":"0.00001715","DECAY_DATE":null,"OBJECT_TYPE":"PAYLOAD","EPHEMERIS_TYPE":"0","OBJECT_NAME":"STARLINK-3919","RA_OF_ASC_NODE":"336.8846","LAUNCH_DATE":"2022-05-13","ECCENTRICITY":"0.00020630","RCS_SIZE":"LARGE","OBJECT_ID":"2022-051AW","CENTER_NAME":"EARTH","MEAN_ANOMALY":"317.6456","SEMIMAJOR_AXIS":"6917.889","REV_AT_EPOCH":"2296","REF_FRAME":"TEME","MEAN_MOTION_DDOT":"0.0000000000000","FILE":"3596607","MEAN_MOTION":"15.08837080","TLE_LINE1":"1 52580U 22051AW  22281.63073813  .00001715  00000-0  12586-3 0  9995","ELEMENT_SET_NO":"999","PERIOD":"95.438","APOAPSIS":"541.181","CLASSIFICATION_TYPE":"U","EPOCH":"2022-10-08T15:08:15.774432","MEAN_ELEMENT_THEORY":"SGP4"},{"TLE_LINE1":"1 52581U 22051AX  22281.84372537 -.00000226  00000-0  39305-5 0  9991","MEAN_MOTION":"15.08840183","ELEMENT_SET_NO":"999","PERIOD":"95.438","CLASSIFICATION_TYPE":"U","APOAPSIS":"541.234","MEAN_ELEMENT_THEORY":"SGP4","EPOCH":"2022-10-08T20:14:57.871968","ECCENTRICITY":"0.00021520","LAUNCH_DATE":"2022-05-13","CENTER_NAME":"EARTH","MEAN_ANOMALY":"317.2550","OBJECT_ID":"2022-051AX","RCS_SIZE":"LARGE","MEAN_MOTION_DDOT":"0.0000000000000","REF_FRAME":"TEME","REV_AT_EPOCH":"2320","SEMIMAJOR_AXIS":"6917.880","FILE":"3596607","INCLINATION":"53.2199","OBJECT_TYPE":"PAYLOAD","DECAY_DATE":null,"ARG_OF_PERICENTER":"42.8610","COUNTRY_CODE":"US","MEAN_MOTION_DOT":"-0.00000226","EPHEMERIS_TYPE":"0","RA_OF_ASC_NODE":"320.9088","OBJECT_NAME":"STARLINK-3915","NORAD_CAT_ID":"52581","TLE_LINE2":"2 52581  53.2199 320.9088 0002152  42.8610 317.2550 15.08840183 23201","SITE":"AFWTR","PERIAPSIS":"538.256","BSTAR":"0.00000393050000","TIME_SYSTEM":"UTC","GP_ID":"214508283"},{"NORAD_CAT_ID":"52582","TLE_LINE2":"2 52582  53.2192 322.9577 0001948  50.0893 310.0270 15.08824646 23134","SITE":"AFWTR","PERIAPSIS":"538.445","BSTAR":"0.00002728000000","TIME_SYSTEM":"UTC","GP_ID":"214477430","INCLINATION":"53.2192","OBJECT_TYPE":"PAYLOAD","DECAY_DATE":null,"MEAN_MOTION_DOT":"0.00000146","COUNTRY_CODE":"US","ARG_OF_PERICENTER":"50.0893","EPHEMERIS_TYPE":"0","RA_OF_ASC_NODE":"322.9577","OBJECT_NAME":"STARLINK-3886","ECCENTRICITY":"0.00019480","LAUNCH_DATE":"2022-05-13","MEAN_ANOMALY":"310.0270","CENTER_NAME":"EARTH","OBJECT_ID":"2022-051AY","RCS_SIZE":"LARGE","MEAN_MOTION_DDOT":"0.0000000000000","REF_FRAME":"TEME","REV_AT_EPOCH":"2313","SEMIMAJOR_AXIS":"6917.927","FILE":"3596390","TLE_LINE1":"1 52582U 22051AY  22281.38740976  .00000146  00000-0  27280-4 0  9995","MEAN_MOTION":"15.08824646","ELEMENT_SET_NO":"999","PERIOD":"95.439","CLASSIFICATION_TYPE":"U","APOAPSIS":"541.140","MEAN_ELEMENT_THEORY":"SGP4","EPOCH":"2022-10-08T09:17:52.203264"},{"BSTAR":"0.00012237000000","TIME_SYSTEM":"UTC","GP_ID":"214508540","SITE":"AFWTR","PERIAPSIS":"538.493","NORAD_CAT_ID":"52583","TLE_LINE2":"2 52583  53.2195 320.9311 0001811  47.9888 312.1258 15.08839697 23209","RA_OF_ASC_NODE":"320.9311","OBJECT_NAME":"STARLINK-3895","EPHEMERIS_TYPE":"0","OBJECT_TYPE":"PAYLOAD","DECAY_DATE":null,"COUNTRY_CODE":"US","MEAN_MOTION_DOT":"0.00001660","ARG_OF_PERICENTER":"47.9888","INCLINATION":"53.2195","FILE":"3596607","MEAN_MOTION_DDOT":"0.0000000000000","REF_FRAME":"TEME","REV_AT_EPOCH":"2320","SEMIMAJOR_AXIS":"6917.881","CENTER_NAME":"EARTH","OBJECT_ID":"2022-051AZ","MEAN_ANOMALY":"312.1258","RCS_SIZE":"LARGE","ECCENTRICITY":"0.00018110","LAUNCH_DATE":"2022-05-13","MEAN_ELEMENT_THEORY":"SGP4","EPOCH":"2022-10-08T20:09:39.950208","CLASSIFICATION_TYPE":"U","APOAPSIS":"540.999","ELEMENT_SET_NO":"999","PERIOD":"95.438","TLE_LINE1":"1 52583U 22051AZ  22281.84004572  .00001660  00000-0  12237-3 0  9999","MEAN_MOTION":"15.08839697"},{"MEAN_ANOMALY":"320.5649","OBJECT_ID":"2022-051BA","CENTER_NAME":"EARTH","RCS_SIZE":"LARGE","ECCENTRICITY":"0.00021360","LAUNCH_DATE":"2022-05-13","FILE":"3596390","REF_FRAME":"TEME","MEAN_MOTION_DDOT":"0.0000000000000","SEMIMAJOR_AXIS":"6917.892","REV_AT_EPOCH":"2313","ELEMENT_SET_NO":"999","PERIOD":"95.438","TLE_LINE1":"1 52584U 22051BA  22281.38372265  .00001762  00000-0  12878-3 0  9990","MEAN_MOTION":"15.08836219","MEAN_ELEMENT_THEORY":"SGP4","EPOCH":"2022-10-08T09:12:33.636960","APOAPSIS":"541.235","CLASSIFICATION_TYPE":"U","SITE":"AFWTR","PERIAPSIS":"538.279","NORAD_CAT_ID":"52584","TLE_LINE2":"2 52584  53.2195 322.9777 0002136  39.5499 320.5649 15.08836219 23130","BSTAR":"0.00012878000000","TIME_SYSTEM":"UTC","GP_ID":"214477591","DECAY_DATE":null,"OBJECT_TYPE":"PAYLOAD","ARG_OF_PERICENTER":"39.5499","COUNTRY_CODE":"US","MEAN_MOTION_DOT":"0.00001762","INCLINATION":"53.2195","RA_OF_ASC_NODE":"322.9777","OBJECT_NAME":"STARLINK-3922","EPHEMERIS_TYPE":"0"},{"ELEMENT_SET_NO":"999","PERIOD":"95.438","MEAN_MOTION":"15.08837419","TLE_LINE1":"1 52585U 22051BB  22281.83268200 -.00000191  00000-0  61056-5 0  9994","EPOCH":"2022-10-08T19:59:03.724800","MEAN_ELEMENT_THEORY":"SGP4","CLASSIFICATION_TYPE":"U","APOAPSIS":"540.967","RCS_SIZE":"LARGE","MEAN_ANOMALY":"313.5612","OBJECT_ID":"2022-051BB","CENTER_NAME":"EARTH","LAUNCH_DATE":"2022-05-13","ECCENTRICITY":"0.00017550","FILE":"3596607","REV_AT_EPOCH":"2320","SEMIMAJOR_AXIS":"6917.888","MEAN_MOTION_DDOT":"0.0000000000000","REF_FRAME":"TEME","COUNTRY_CODE":"US","ARG_OF_PERICENTER":"46.5526","MEAN_MOTION_DOT":"-0.00000191","OBJECT_TYPE":"PAYLOAD","DECAY_DATE":null,"INCLINATION":"53.2181","OBJECT_NAME":"STARLINK-3906","RA_OF_ASC_NODE":"320.9691","EPHEMERIS_TYPE":"0","PERIAPSIS":"538.539","SITE":"AFWTR","TLE_LINE2":"2 52585  53.2181 320.9691 0001755  46.5526 313.5612 15.08837419 23207","NORAD_CAT_ID":"52585","GP_ID":"214508700","TIME_SYSTEM":"UTC","BSTAR":"0.00000610560000"},{"MEAN_ELEMENT_THEORY":"SGP4","EPOCH":"2022-10-08T20:04:21.972288","CLASSIFICATION_TYPE":"U","APOAPSIS":"541.014","ELEMENT_SET_NO":"999","PERIOD":"95.438","TLE_LINE1":"1 52586U 22051BC  22281.83636542  .00000208  00000-0  31157-4 0  9999","MEAN_MOTION":"15.08836267","FILE":"3596607","MEAN_MOTION_DDOT":"0.0000000000000","REF_FRAME":"TEME","REV_AT_EPOCH":"2320","SEMIMAJOR_AXIS":"6917.892","CENTER_NAME":"EARTH","OBJECT_ID":"2022-051BC","MEAN_ANOMALY":"317.5788","RCS_SIZE":"LARGE","ECCENTRICITY":"0.00018170","LAUNCH_DATE":"2022-05-13","RA_OF_ASC_NODE":"320.9470","OBJECT_NAME":"STARLINK-3910","EPHEMERIS_TYPE":"0","OBJECT_TYPE":"PAYLOAD","DECAY_DATE":null,"MEAN_MOTION_DOT":"0.00000208","COUNTRY_CODE":"US","ARG_OF_PERICENTER":"42.5345","INCLINATION":"53.2188","TIME_SYSTEM":"UTC","BSTAR":"0.00003115700000","GP_ID":"214509257","SITE":"AFWTR","PERIAPSIS":"538.500","NORAD_CAT_ID":"52586","TLE_LINE2":"2 52586  53.2188 320.9470 0001817  42.5345 317.5788 15.08836267 23202"},{"RCS_SIZE":"LARGE","MEAN_ANOMALY":"323.2211","CENTER_NAME":"EARTH","OBJECT_ID":"2022-051BD","LAUNCH_DATE":"2022-05-13","ECCENTRICITY":"0.00020640","FILE":"3596607","SEMIMAJOR_AXIS":"6917.896","REV_AT_EPOCH":"2320","REF_FRAME":"TEME","MEAN_MOTION_DDOT":"0.0000000000000","ELEMENT_SET_NO":"999","PERIOD":"95.438","MEAN_MOTION":"15.08834955","TLE_LINE1":"1 52587U 22051BD  22281.82901023  .00000616  00000-0  56804-4 0  9997","EPOCH":"2022-10-08T19:53:46.483872","MEAN_ELEMENT_THEORY":"SGP4","APOAPSIS":"541.189","CLASSIFICATION_TYPE":"U","PERIAPSIS":"538.333","SITE":"AFWTR","TLE_LINE2":"2 52587  53.2196 320.9891 0002064  36.8923 323.2211 15.08834955 23209","NORAD_CAT_ID":"52587","GP_ID":"214508123","TIME_SYSTEM":"UTC","BSTAR":"0.00005680400000","COUNTRY_CODE":"US","MEAN_MOTION_DOT":"0.00000616","ARG_OF_PERICENTER":"36.8923","DECAY_DATE":null,"OBJECT_TYPE":"PAYLOAD","INCLINATION":"53.2196","OBJECT_NAME":"STARLINK-3867","RA_OF_ASC_NODE":"320.9891","EPHEMERIS_TYPE":"0"},{"SITE":"AFWTR","PERIAPSIS":"538.490","NORAD_CAT_ID":"52588","TLE_LINE2":"2 52588  53.2181 321.0075 0001835  46.2989 313.8155 15.08835318 23208","TIME_SYSTEM":"UTC","BSTAR":"0.00006828700000","GP_ID":"214508446","OBJECT_TYPE":"PAYLOAD","DECAY_DATE":null,"ARG_OF_PERICENTER":"46.2989","COUNTRY_CODE":"US","MEAN_MOTION_DOT":"0.00000799","INCLINATION":"53.2181","RA_OF_ASC_NODE":"321.0075","OBJECT_NAME":"STARLINK-3917","EPHEMERIS_TYPE":"0","MEAN_ANOMALY":"313.8155","CENTER_NAME":"EARTH","OBJECT_ID":"2022-051BE","RCS_SIZE":"LARGE","ECCENTRICITY":"0.00018350","LAUNCH_DATE":"2022-05-13","FILE":"3596607","MEAN_MOTION_DDOT":"0.0000000000000","REF_FRAME":"TEME","REV_AT_EPOCH":"2320","SEMIMAJOR_AXIS":"6917.895","ELEMENT_SET_NO":"999","PERIOD":"95.438","TLE_LINE1":"1 52588U 22051BE  22281.82533013  .00000799  00000-0  68287-4 0  9998","MEAN_MOTION":"15.08835318","MEAN_ELEMENT_THEORY":"SGP4","EPOCH":"2022-10-08T19:48:28.523232","CLASSIFICATION_TYPE":"U","APOAPSIS":"541.029"}];
